OBJECT_NAME,OBJECT_ID,EPOCH,MEAN_MOTION,ECCENTRICITY,INCLINATION,RA_OF_ASC_NODE,ARG_OF_PERICENTER,MEAN_ANOMALY,EPHEMERIS_TYPE,CLASSIFICATION_TYPE,NORAD_CAT_ID,ELEMENT_SET_NO,REV_AT_EPOCH,BSTAR,MEAN_MOTION_DOT,MEAN_MOTION_DDOT
FENGYUN 1C DEB,1999-025EEZ,2023-12-31T13:57:01.104192,13.53863438,.0316223,103.3041,282.4042,338.2719,20.5235,0,U,37065,999,12545,.4459E-2,.4075E-4,0
FENGYUN 1C DEB,1999-025EFB,2023-12-23T17:02:51.908928,13.84066804,.0187082,99.5640,265.6165,236.3928,121.9249,0,U,37067,999,47389,.38409E-2,.4849E-4,0
FENGYUN 1C DEB,1999-025EFL,2024-01-01T21:34:43.504896,14.11055522,.0171295,98.2989,246.0654,295.1315,63.2172,0,U,37076,999,28801,.26361E-2,.5402E-4,0
FENGYUN 1C DEB,1999-025EFP,2024-01-15T12:03:40.331232,14.32061613,.0018876,98.8469,115.2322,62.4088,297.9009,0,U,37079,999,77487,.45936E-2,.1234E-3,0
FENGYUN 1C DEB,1999-025EFR,2024-01-16T07:18:37.355328,13.82619575,.0350462,98.7172,195.4272,127.6634,235.6863,0,U,37081,999,48840,.10717E-1,.18646E-3,0
FENGYUN 1C DEB,1999-025EFY,2024-01-19T16:48:14.046912,14.00001215,.0159437,98.4862,294.0961,61.0957,330.3483,0,U,37406,999,53519,.19069E-2,.3093E-4,0
FENGYUN 1C DEB,1999-025EGF,2024-01-20T05:23:33.656640,14.81843890,.003863,98.7030,19.3832,66.0742,294.4507,0,U,37413,999,54328,.11228E-1,.90982E-3,0
FENGYUN 1C DEB,1999-025EGP,2024-01-19T01:29:46.158720,13.39453199,.0410872,98.8586,53.0517,29.5558,332.8133,0,U,37421,999,51655,.48947E-3,.397E-5,0
FENGYUN 1C DEB,1999-025EGR,2024-01-17T09:57:26.261856,14.04428219,.0048945,98.8522,79.7542,310.7502,48.9422,0,U,37423,999,53838,.10384E-2,.1629E-4,0
FENGYUN 1C DEB,1999-025EGS,2024-01-14T11:54:46.417248,14.12577654,.0228168,97.2070,271.5299,201.8610,157.2711,0,U,37424,999,58697,.1363E-2,.3196E-4,0
FENGYUN 1C DEB,1999-025EGT,2024-01-18T06:27:32.080320,13.84356441,.0166157,97.1423,29.7205,341.2871,78.3937,0,U,37425,999,55528,.25454E-2,.3139E-4,0
FENGYUN 1C DEB,1999-025EGW,2024-01-18T01:18:20.125440,14.22385605,.0070792,97.7655,311.4308,25.1933,335.2673,0,U,37428,999,53515,.39864E-2,.9076E-4,0
FENGYUN 1C DEB,1999-025EGX,2024-01-04T06:15:12.654432,14.07497502,.0105987,98.6287,19.1032,207.4467,152.1080,0,U,37429,999,53112,.4874E-3,.822E-5,0
FENGYUN 1C DEB,1999-025EHE,2024-01-09T22:25:26.913792,14.04169475,.0060229,99.0292,65.0072,309.4150,50.1694,0,U,37436,999,79828,.77984E-3,.1212E-4,0
FENGYUN 1C DEB,1999-025EHF,2024-01-12T20:04:59.278944,14.15996740,.011597,98.5645,23.1145,265.2873,218.3156,0,U,37437,999,78280,.80195E-3,.1645E-4,0
FENGYUN 1C DEB,1999-025EHG,2024-01-17T22:07:39.185184,14.12521367,.0030198,98.8141,63.2230,43.2398,317.1137,0,U,37438,999,50315,.10375E-2,.1882E-4,0
FENGYUN 1C DEB,1999-025EHH,2024-01-16T23:56:43.438272,14.10143739,.0063994,99.0639,85.8137,260.9080,223.2646,0,U,37439,999,51428,.29508E-2,.5277E-4,0
FENGYUN 1C DEB,1999-025EHN,2024-01-20T07:07:26.425632,14.39102097,.0274324,99.1544,44.6377,239.4745,117.9103,0,U,37444,999,55159,.11414E-2,.5431E-4,0
FENGYUN 1C DEB,1999-025EHP,2024-01-16T20:26:17.779488,14.23988741,.0177414,99.3413,41.0803,120.9632,240.9112,0,U,37445,999,54523,.8054E-3,.2126E-4,0
FENGYUN 1C DEB,1999-025EHR,2024-01-15T23:06:41.236992,14.14125944,.0042819,98.8783,75.2831,59.2356,64.8108,0,U,37447,999,53597,.12202E-2,.23E-4,0
FENGYUN 1C DEB,1999-025EHT,2024-01-11T01:43:09.829920,15.20840301,.007775,98.8284,312.1858,328.9271,30.7373,0,U,37449,999,77300,.38267E-2,.92591E-3,0
FENGYUN 1C DEB,1999-025EHX,2024-01-09T10:37:31.881504,13.57886848,.0390907,97.6455,89.9033,342.0720,16.6954,0,U,37453,999,80047,.27687E-2,.3257E-4,0
