0 FENGYUN 1C DEB
1 37065U 99025EEZ 23365.58126278  .00004075  00000-0  44590-2 0  9994
2 37065 103.3041 282.4042 0316223 338.2719  20.5235 13.53863438125455
0 FENGYUN 1C DEB
1 37067U 99025EFB 23357.71032302  .00004849  00000-0  38409-2 0  9997
2 37067  99.5640 265.6165 0187082 236.3928 121.9249 13.84066804473897
0 FENGYUN 1C DEB
1 37076U 99025EFL 24001.89911464  .00005402  00000-0  26361-2 0  9998
2 37076  98.2989 246.0654 0171295 295.1315  63.2172 14.11055522288014
0 FENGYUN 1C DEB
1 37079U 99025EFP 24015.50255013  .00012340  00000-0  45936-2 0  9993
2 37079  98.8469 115.2322 0018876  62.4088 297.9009 14.32061613774872
0 FENGYUN 1C DEB
1 37081U 99025EFR 24016.30459902  .00018646  00000-0  10717-1 0  9991
2 37081  98.7172 195.4272 0350462 127.6634 235.6863 13.82619575488408
0 FENGYUN 1C DEB
1 37406U 99025EFY 24019.70016258  .00003093  00000-0  19069-2 0  9992
2 37406  98.4862 294.0961 0159437  61.0957 330.3483 14.00001215535198
0 FENGYUN 1C DEB
1 37413U 99025EGF 24020.22469510  .00090982  00000-0  11228-1 0  9993
2 37413  98.7030  19.3832 0038630  66.0742 294.4507 14.81843890543287
0 FENGYUN 1C DEB
1 37421U 99025EGP 24019.06233980  .00000397  00000-0  48947-3 0  9993
2 37421  98.8586  53.0517 0410872  29.5558 332.8133 13.39453199516552
0 FENGYUN 1C DEB
1 37423U 99025EGR 24017.41488729  .00001629  00000-0  10384-2 0  9997
2 37423  98.8522  79.7542 0048945 310.7502  48.9422 14.04428219538388
0 FENGYUN 1C DEB
1 37424U 99025EGS 24014.49637057  .00003196  00000-0  13630-2 0  9991
2 37424  97.2070 271.5299 0228168 201.8610 157.2711 14.12577654586978
0 FENGYUN 1C DEB
1 37425U 99025EGT 24018.26912130  .00003139  00000-0  25454-2 0  9993
2 37425  97.1423  29.7205 0166157 341.2871  78.3937 13.84356441555287
0 FENGYUN 1C DEB
1 37428U 99025EGW 24018.05439960  .00009076  00000-0  39864-2 0  9994
2 37428  97.7655 311.4308 0070792  25.1933 335.2673 14.22385605535157
0 FENGYUN 1C DEB
1 37429U 99025EGX 24004.26056313  .00000822  00000-0  48740-3 0  9994
2 37429  98.6287  19.1032 0105987 207.4467 152.1080 14.07497502531121
0 FENGYUN 1C DEB
1 37436U 99025EHE 24009.93433928  .00001212  00000-0  77984-3 0  9998
2 37436  99.0292  65.0072 0060229 309.4150  50.1694 14.04169475798287
0 FENGYUN 1C DEB
1 37437U 99025EHF 24012.83679721  .00001645  00000-0  80195-3 0  9993
2 37437  98.5645  23.1145 0115970 265.2873 218.3156 14.15996740782802
0 FENGYUN 1C DEB
1 37438U 99025EHG 24017.92198131  .00001882  00000-0  10375-2 0  9995
2 37438  98.8141  63.2230 0030198  43.2398 317.1137 14.12521367503153
0 FENGYUN 1C DEB
1 37439U 99025EHH 24016.99772498  .00005277  00000-0  29508-2 0  9996
2 37439  99.0639  85.8137 0063994 260.9080 223.2646 14.10143739514280
0 FENGYUN 1C DEB
1 37444U 99025EHN 24020.29683363  .00005431  00000-0  11414-2 0  9991
2 37444  99.1544  44.6377 0274324 239.4745 117.9103 14.39102097752779
0 FENGYUN 1C DEB
1 37445U 99025EHP 24016.85159467  .00002126  00000-0  80540-3 0  9997
2 37445  99.3413  41.0803 0177414 120.9632 240.9112 14.23988741545232
0 FENGYUN 1C DEB
1 37447U 99025EHR 24015.96297728  .00002300  00000-0  12202-2 0  9996
2 37447  98.8783  75.2831 0042819  59.2356  64.8108 14.14125944535971
0 FENGYUN 1C DEB
1 37449U 99025EHT 24011.07164155  .00092591  00000-0  38267-2 0  9993
2 37449  98.8284 312.1858 0077750 328.9271  30.7373 15.20840301773008
0 FENGYUN 1C DEB
1 37453U 99025EHX 24009.44273011  .00003257  00000-0  27687-2 0  9993
2 37453  97.6455  89.9033 0390907 342.0720  16.6954 13.57886848800476
